{"type": "FeatureCollection", "features": [ {"type": "Feature", "properties": {"norad_id": 41774, "name": "SKYSAT-C3", "group": "resource", "lat": -51.768868853209696, "lon": 19.391583852079016, "alt_km": 442.67201662213756, "timestamp": "2025-12-02T06:27:52.678527+00:00", "meta": {"OBJECT_NAME": "SKYSAT-C3", "OBJECT_ID": "2016-058E", "EPOCH": "2025-12-01T19:48:05.870880", "MEAN_MOTION": 15.4381581, "ECCENTRICITY": 0.0001423, "INCLINATION": 96.9319, "RA_OF_ASC_NODE": 10.0841, "ARG_OF_PERICENTER": 99.0795, "MEAN_ANOMALY": 261.0615, "EPHEMERIS_TYPE": 0, "CLASSIFICATION_TYPE": "U", "NORAD_CAT_ID": 41774, "ELEMENT_SET_NO": 999, "REV_AT_EPOCH": 51557, "BSTAR": 0.00042571, "MEAN_MOTION_DOT": 0.00019224, "MEAN_MOTION_DDOT": 0}, "tle": {"line1": "1 41774U 16058E   25335.82506795  .00019224  00000+0  42571-3 0  9992", "line2": "2 41774  96.9319  10.0841 0001423  99.0795 261.0615 15.43815810515575"}}, "geometry": {"type": "Point", "coordinates": [19.391583852079016, -51.768868853209696]}}, {"type": "Feature", "properties": {"norad_id": 41785, "name": "ALSAT 1B", "group": "resource", "lat": -2.742505840764955, "lon": -11.113788850623775, "alt_km": 663.086624917737, "timestamp": "2025-12-02T06:27:52.678538+00:00", "meta": {"OBJECT_NAME": "ALSAT 1B", "OBJECT_ID": "2016-059C", "EPOCH": "2025-12-01T20:41:20.454720", "MEAN_MOTION": 14.72056403, "ECCENTRICITY": 0.0010296, "INCLINATION": 97.782, "RA_OF_ASC_NODE": 348.1211, "ARG_OF_PERICENTER": 134.7303, "MEAN_ANOMALY": 225.4744, "EPHEMERIS_TYPE": 0, "CLASSIFICATION_TYPE": "U", "NORAD_CAT_ID": 41785, "ELEMENT_SET_NO": 999, "REV_AT_EPOCH": 49154, "BSTAR": 8.9173e-05, "MEAN_MOTION_DOT": 5.14e-06, "MEAN_MOTION_DDOT": 0}, "tle": {"line1": "1 41785U 16059C   25335.86204230  .00000514  00000+0  89173-4 0  9990", "line2": "2 41785  97.7820 348.1211 0010296 134.7303 225.4744 14.72056403491542"}}, "geometry": {"type": "Point", "coordinates": [-11.113788850623775, -2.742505840764955]}}, {"type": "Feature", "properties": {"norad_id": 41787, "name": "PATHFINDER 1", "group": "resource", "lat": -73.49052611207505, "lon": 131.92783075883085, "alt_km": 693.7369738118105, "timestamp": "2025-12-02T06:27:52.678548+00:00", "meta": {"OBJECT_NAME": "PATHFINDER 1", "OBJECT_ID": "2016-059E", "EPOCH": "2025-12-01T19:29:11.723136", "MEAN_MOTION": 14.67289535, "ECCENTRICITY": 0.0029912, "INCLINATION": 97.814, "RA_OF_ASC_NODE": 339.0928, "ARG_OF_PERICENTER": 114.4047, "MEAN_ANOMALY": 246.0285, "EPHEMERIS_TYPE": 0, "CLASSIFICATION_TYPE": "U", "NORAD_CAT_ID": 41787, "ELEMENT_SET_NO": 999, "REV_AT_EPOCH": 49076, "BSTAR": 0.00016258, "MEAN_MOTION_DOT": 8.77e-06, "MEAN_MOTION_DDOT": 0}, "tle": {"line1": "1 41787U 16059E   25335.81194124  .00000877  00000+0  16258-3 0  9992", "line2": "2 41787  97.8140 339.0928 0029912 114.4047 246.0285 14.67289535490769"}}, "geometry": {"type": "Point", "coordinates": [131.92783075883085, -73.49052611207505]}}, {"type": "Feature", "properties": {"norad_id": 41790, "name": "SCATSAT 1", "group": "resource", "lat": 8.902966844585626, "lon": -145.90500721409842, "alt_km": 596.1333310277323, "timestamp": "2025-12-02T06:27:52.678558+00:00", "meta": {"OBJECT_NAME": "SCATSAT 1", "OBJECT_ID": "2016-059H", "EPOCH": "2025-12-01T18:19:43.807008", "MEAN_MOTION": 14.78872669, "ECCENTRICITY": 0.0055721, "INCLINATION": 98.1483, "RA_OF_ASC_NODE": 32.2969, "ARG_OF_PERICENTER": 162.8474, "MEAN_ANOMALY": 197.4636, "EPHEMERIS_TYPE": 0, "CLASSIFICATION_TYPE": "U", "NORAD_CAT_ID": 41790, "ELEMENT_SET_NO": 999, "REV_AT_EPOCH": 7240, "BSTAR": 0.00024802, "MEAN_MOTION_DOT": 1.818e-05, "MEAN_MOTION_DDOT": 0}, "tle": {"line1": "1 41790U 16059H   25335.76370147  .00001818  00000+0  24802-3 0  9991", "line2": "2 41790  98.1483  32.2969 0055721 162.8474 197.4636 14.78872669 72406"}}, "geometry": {"type": "Point", "coordinates": [-145.90500721409842, 8.902966844585626]}}, {"type": "Feature", "properties": {"norad_id": 41875, "name": "GOKTURK 1A", "group": "resource", "lat": 36.549665009938074, "lon": 54.866907350090216, "alt_km": 681.3020861731657, "timestamp": "2025-12-02T06:27:52.678568+00:00", "meta": {"OBJECT_NAME": "GOKTURK 1A", "OBJECT_ID": "2016-073A", "EPOCH": "2025-12-01T21:36:17.803584", "MEAN_MOTION": 14.6275787, "ECCENTRICITY": 0.0001244, "INCLINATION": 98.1431, "RA_OF_ASC_NODE": 228.4098, "ARG_OF_PERICENTER": 81.9677, "MEAN_ANOMALY": 278.1666, "EPHEMERIS_TYPE": 0, "CLASSIFICATION_TYPE": "U", "NORAD_CAT_ID": 41875, "ELEMENT_SET_NO": 999, "REV_AT_EPOCH": 47998, "BSTAR": 0.00012743, "MEAN_MOTION_DOT": 6.03e-06, "MEAN_MOTION_DDOT": 0}, "tle": {"line1": "1 41875U 16073A   25335.90020606  .00000603  00000+0  12743-3 0  9991", "line2": "2 41875  98.1431 228.4098 0001244  81.9677 278.1666 14.62757870479985"}}, "geometry": {"type": "Point", "coordinates": [54.866907350090216, 36.549665009938074]}}, {"type": "Feature", "properties": {"norad_id": 41877, "name": "RESOURCESAT-2A", "group": "resource", "lat": -57.92798844708332, "lon": 60.45931142886405, "alt_km": 826.1854697058043, "timestamp": "2025-12-02T06:27:52.678578+00:00", "meta": {"OBJECT_NAME": "RESOURCESAT-2A", "OBJECT_ID": "2016-074A", "EPOCH": "2025-12-01T20:36:23.764032", "MEAN_MOTION": 14.21591769, "ECCENTRICITY": 0.0001193, "INCLINATION": 98.7769, "RA_OF_ASC_NODE": 45.7774, "ARG_OF_PERICENTER": 309.591, "MEAN_ANOMALY": 50.5161, "EPHEMERIS_TYPE": 0, "CLASSIFICATION_TYPE": "U", "NORAD_CAT_ID": 41877, "ELEMENT_SET_NO": 999, "REV_AT_EPOCH": 46626, "BSTAR": 0.00010679, "MEAN_MOTION_DOT": 1.9e-06, "MEAN_MOTION_DDOT": 0}, "tle": {"line1": "1 41877U 16074A   25335.85860838  .00000190  00000+0  10679-3 0  9994", "line2": "2 41877  98.7769  45.7774 0001193 309.5910  50.5161 14.21591769466267"}}, "geometry": {"type": "Point", "coordinates": [60.45931142886405, -57.92798844708332]}}, {"type": "Feature", "properties": {"norad_id": 41948, "name": "CARTOSAT-2D", "group": "resource", "lat": -53.21461810194739, "lon": -156.1411931928102, "alt_km": 512.1096698293923, "timestamp": "2025-12-02T06:27:52.678588+00:00", "meta": {"OBJECT_NAME": "CARTOSAT-2D", "OBJECT_ID": "2017-008A", "EPOCH": "2025-12-01T21:32:07.372320", "MEAN_MOTION": 15.19321418, "ECCENTRICITY": 0.0004786, "INCLINATION": 97.4405, "RA_OF_ASC_NODE": 33.5585, "ARG_OF_PERICENTER": 203.7321, "MEAN_ANOMALY": 156.3693, "EPHEMERIS_TYPE": 0, "CLASSIFICATION_TYPE": "U", "NORAD_CAT_ID": 41948, "ELEMENT_SET_NO": 999, "REV_AT_EPOCH": 48762, "BSTAR": 1.5054e-06, "MEAN_MOTION_DOT": -3.6e-07, "MEAN_MOTION_DDOT": 0}, "tle": {"line1": "1 41948U 17008A   25335.89730755 -.00000036  00000+0  15054-5 0  9993", "line2": "2 41948  97.4405  33.5585 0004786 203.7321 156.3693 15.19321418487624"}}, "geometry": {"type": "Point", "coordinates": [-156.1411931928102, -53.21461810194739]}}, {"type": "Feature", "properties": {"norad_id": 42063, "name": "SENTINEL-2B", "group": "resource", "lat": -74.61992237752663, "lon": 82.1185672037116, "alt_km": 797.1262054786503, "timestamp": "2025-12-02T06:27:52.678599+00:00", "meta": {"OBJECT_NAME": "SENTINEL-2B", "OBJECT_ID": "2017-013A", "EPOCH": "2025-12-01T20:45:17.841312", "MEAN_MOTION": 14.30808731, "ECCENTRICITY": 0.000112, "INCLINATION": 98.5728, "RA_OF_ASC_NODE": 48.4629, "ARG_OF_PERICENTER": 98.7287, "MEAN_ANOMALY": 261.4023, "EPHEMERIS_TYPE": 0, "CLASSIFICATION_TYPE": "U", "NORAD_CAT_ID": 42063, "ELEMENT_SET_NO": 999, "REV_AT_EPOCH": 45642, "BSTAR": 8.0174e-05, "MEAN_MOTION_DOT": 1.66e-06, "MEAN_MOTION_DDOT": 0}, "tle": {"line1": "1 42063U 17013A   25335.86478983  .00000166  00000+0  80174-4 0  9994", "line2": "2 42063  98.5728  48.4629 0001120  98.7287 261.4023 14.30808731456428"}}, "geometry": {"type": "Point", "coordinates": [82.1185672037116, -74.61992237752663]}}, {"type": "Feature", "properties": {"norad_id": 42767, "name": "CARTOSAT-2E", "group": "resource", "lat": 35.032468313391554, "lon": -140.73860950139755, "alt_km": 506.89571658435943, "timestamp": "2025-12-02T06:27:52.678608+00:00", "meta": {"OBJECT_NAME": "CARTOSAT-2E", "OBJECT_ID": "2017-036C", "EPOCH": "2025-12-01T20:20:47.109408", "MEAN_MOTION": 15.19323556, "ECCENTRICITY": 0.0002731, "INCLINATION": 97.4579, "RA_OF_ASC_NODE": 33.5759, "ARG_OF_PERICENTER": 279.1294, "MEAN_ANOMALY": 80.9632, "EPHEMERIS_TYPE": 0, "CLASSIFICATION_TYPE": "U", "NORAD_CAT_ID": 42767, "ELEMENT_SET_NO": 999, "REV_AT_EPOCH": 46818, "BSTAR": 0.0002923, "MEAN_MOTION_DOT": 6.107e-05, "MEAN_MOTION_DDOT": 0}, "tle": {"line1": "1 42767U 17036C   25335.84776747  .00006107  00000+0  29230-3 0  9993", "line2": "2 42767  97.4579  33.5759 0002731 279.1294  80.9632 15.19323556468183"}}, "geometry": {"type": "Point", "coordinates": [-140.73860950139755, 35.032468313391554]}}, {"type": "Feature", "properties": {"norad_id": 42920, "name": "FORMOSAT-5", "group": "resource", "lat": -63.98778026398787, "lon": -146.49285149745324, "alt_km": 728.9860025227008, "timestamp": "2025-12-02T06:27:52.678619+00:00", "meta": {"OBJECT_NAME": "FORMOSAT-5", "OBJECT_ID": "2017-049A", "EPOCH": "2025-12-01T19:24:25.612128", "MEAN_MOTION": 14.5099417, "ECCENTRICITY": 0.0010404, "INCLINATION": 98.2464, "RA_OF_ASC_NODE": 50.344, "ARG_OF_PERICENTER": 331.9004, "MEAN_ANOMALY": 28.1628, "EPHEMERIS_TYPE": 0, "CLASSIFICATION_TYPE": "U", "NORAD_CAT_ID": 42920, "ELEMENT_SET_NO": 999, "REV_AT_EPOCH": 43805, "BSTAR": 7.5335e-05, "MEAN_MOTION_DOT": 2.54e-06, "MEAN_MOTION_DDOT": 0}, "tle": {"line1": "1 42920U 17049A   25335.80862977  .00000254  00000+0  75335-4 0  9990", "line2": "2 42920  98.2464  50.3440 0010404 331.9004  28.1628 14.50994170438054"}}, "geometry": {"type": "Point", "coordinates": [-146.49285149745324, -63.98778026398787]}}]}